OBJECT B                
1 51825U 22019B   24184.92659929  .00012562  00000+0  54497-3 0  9992
2 51825  97.4291 256.0804 0014819 177.9043 182.2258 15.22385774129626
